ONEWEB-0412             
1 50489U 21132W   23339.54899624  .00000071  00000+0  14698-3 0  9990
2 50489  87.9210 159.4101 0001175  70.9235 289.2024 13.18684540 99797
ONEWEB-0413             
1 50490U 21132X   23339.55322589  .00000022  00000+0  22750-4 0  9999
2 50490  87.9209 159.4226 0001139  78.5597 281.5663 13.18685618101021
ONEWEB-0414             
1 50491U 21132Y   23340.07062995 -.00000036  00000+0 -12284-3 0  9998
2 50491  87.9206 159.3069 0001452  73.6347 286.4944 13.18690043101125
ONEWEB-0417             
1 50492U 21132Z   23339.92627212  .00000128  00000+0  29264-3 0  9996
2 50492  87.9149 159.3296 0001858  86.5737 273.5608 13.18684429 99794
ONEWEB-0418             
1 50493U 21132AA  23339.56060423  .00000027  00000+0  35018-4 0  9995
2 50493  87.9210 159.4097 0002065  82.5492 277.5875 13.18684731 99807
ONEWEB-0419             
1 50494U 21132AB  23339.49841435  .00000059  00000+0  11650-3 0  9998
2 50494  87.9208 159.4442 0001891  92.4797 267.6551 13.18686422 99713
ONEWEB-0420             
1 50495U 21132AC  23339.91995237  .00000048  00000+0  87903-4 0  9999
2 50495  87.9208 159.3690 0001167  97.2692 262.8572 13.18685381 99769
ONEWEB-0421             
1 50496U 21132AD  23339.53423885  .00000097  00000+0  21440-3 0  9990
2 50496  87.9156 159.3966 0001303  69.4395 290.6877 13.18688795 99759
